OBJECT_NAME,OBJECT_ID,EPOCH,MEAN_MOTION,ECCENTRICITY,INCLINATION,RA_OF_ASC_NODE,ARG_OF_PERICENTER,MEAN_ANOMALY,EPHEMERIS_TYPE,CLASSIFICATION_TYPE,NORAD_CAT_ID,ELEMENT_SET_NO,REV_AT_EPOCH,BSTAR,MEAN_MOTION_DOT,MEAN_MOTION_DDOT
ONEWEB-0536,2022-138AM,2026-06-07T17:59:56.039424,13.20771064,.0002748,87.9176,276.3396,115.7669,244.3748,0,U,54148,999,17805,.10762E-3,.57E-6,0
ONEWEB-0527,2022-166A,2026-06-07T20:00:04.000032,13.20241148,.0002097,87.9244,245.8581,101.2731,113.4646,0,U,54642,999,523,-.10328E+0,-.41461E-3,0
ONEWEB-0528,2022-166B,2026-06-07T17:09:35.937792,13.21668392,.0001792,87.9256,245.8841,101.3042,258.8293,0,U,54643,999,17029,-.18221E-4,.5E-7,0
ONEWEB-0539,2022-166C,2026-06-07T18:04:43.818816,13.21826251,.0002077,87.9264,245.8476,93.2806,266.8565,0,U,54644,999,17029,-.11144E-3,-.33E-6,0
ONEWEB-0540,2022-166D,2026-06-07T18:14:36.706848,13.21826829,.0002069,87.9258,245.8772,96.2576,263.8794,0,U,54645,999,17028,.27449E-4,.24E-6,0
ONEWEB-0542,2022-166E,2026-06-07T14:41:15.012384,13.21827660,.0002111,87.9265,245.8742,91.3093,268.8283,0,U,54646,999,17027,.59194E-4,.37E-6,0
ONEWEB-0545,2022-166F,2026-06-07T17:28:23.104416,13.21827862,.0002298,87.9255,245.8638,87.8267,272.3130,0,U,54647,999,17025,.2698E-3,.124E-5,0
ONEWEB-0580,2022-166G,2026-06-07T16:52:02.804736,13.21827067,.0002352,87.9258,245.8684,92.7726,267.3677,0,U,54648,999,17029,-.1962E-3,-.68E-6,0
ONEWEB-0582,2022-166H,2026-06-07T17:52:37.060896,13.21826615,.000227,87.9257,245.8527,90.0457,270.0937,0,U,54649,999,17027,.48609E-4,.33E-6,0
ONEWEB-0583,2022-166J,2026-06-07T18:09:33.980256,13.21827847,.0002012,87.9255,245.8737,96.0470,264.0893,0,U,54650,999,17028,.65605E-4,.4E-6,0
ONEWEB-0584,2022-166K,2026-06-07T16:49:36.920064,13.21825120,.0002134,87.9256,245.8704,97.8195,262.3181,0,U,54651,999,17026,-.32124E-4,0,0
ONEWEB-0585,2022-166L,2026-06-07T17:23:33.202176,13.21826518,.0001974,87.9258,245.8522,104.0071,256.1282,0,U,54652,999,17027,-.2766E-3,-.101E-5,0
ONEWEB-0586,2022-166M,2026-06-07T17:42:53.325216,13.21825536,.0002059,87.9257,245.8755,94.7657,265.3712,0,U,54653,999,17027,-.39564E-3,-.15E-5,0
ONEWEB-0587,2022-166N,2026-06-07T17:57:25.439040,13.21828177,.0001834,87.9268,245.8460,109.1555,250.9778,0,U,54654,999,17043,.99614E-4,.54E-6,0
ONEWEB-0589,2022-166P,2026-06-07T17:38:02.856192,13.21823922,.0002669,87.9254,245.8622,84.9105,275.2333,0,U,54655,999,17029,-.84539E-4,-.22E-6,0
ONEWEB-0590,2022-166Q,2026-06-07T18:14:13.115328,13.21826275,.0002452,87.9265,245.8463,105.2174,254.9231,0,U,54656,999,17028,-.16112E-3,-.54E-6,0
ONEWEB-0591,2022-166R,2026-06-07T16:42:22.580352,13.21825741,.0002111,87.9255,245.8745,99.8277,260.3096,0,U,54657,999,17030,-.56343E-4,-.1E-6,0
ONEWEB-0592,2022-166S,2026-06-07T16:47:12.708096,13.21826917,.0002053,87.9266,245.8510,99.3677,260.7690,0,U,54658,999,17018,-.16035E-3,-.53E-6,0
ONEWEB-0593,2022-166T,2026-06-07T17:18:40.791744,13.21827193,.0002034,87.9259,245.8596,94.7089,265.4277,0,U,54659,999,17029,.2633E-4,.24E-6,0
ONEWEB-0594,2022-166U,2026-06-07T17:47:44.118240,13.21824101,.0002001,87.9256,245.8718,101.4561,258.6798,0,U,54660,999,17031,.31358E-4,.26E-6,0
ONEWEB-0595,2022-166V,2026-06-07T17:13:51.042432,13.21826220,.0002028,87.9266,245.8563,105.8561,254.2796,0,U,54661,999,17028,-.88362E-4,-.23E-6,0
ONEWEB-0596,2022-166W,2026-06-07T16:37:31.580832,13.21826239,.0002003,87.9257,245.8732,102.1351,258.0007,0,U,54662,999,17028,-.29168E-4,.1E-7,0
ONEWEB-0597,2022-166X,2026-06-07T17:59:52.967040,13.21826236,.0002045,87.9254,245.8652,96.0702,264.0665,0,U,54663,999,17029,-.12586E-3,-.39E-6,0
ONEWEB-0600,2022-166Y,2026-06-07T17:33:12.051072,13.21828010,.0001864,87.9255,245.8603,95.4651,264.6695,0,U,54664,999,17026,.48394E-4,.33E-6,0
ONEWEB-0601,2022-166Z,2026-06-07T17:21:06.501024,13.21825392,.000213,87.9251,245.8778,93.4299,266.7079,0,U,54665,999,17045,.14598E-3,.73E-6,0
ONEWEB-0602,2022-166AA,2026-06-07T18:20:27.628224,13.21825807,.000185,87.9255,245.8759,92.9437,267.1908,0,U,54666,999,17030,-.11895E-3,-.36E-6,0
ONEWEB-0603,2022-166AB,2026-06-07T16:39:57.054240,13.21825848,.0002015,87.9265,245.8457,96.1212,264.0152,0,U,54667,999,17022,-.13349E-3,-.42E-6,0
ONEWEB-0604,2022-166AC,2026-06-07T16:22:59.091168,13.21827381,.0001958,87.9266,245.8638,101.2693,258.8661,0,U,54668,999,17018,-.92677E-4,-.25E-6,0
ONEWEB-0605,2022-166AD,2026-06-07T18:02:18.760992,13.21824765,.0002635,87.9257,245.8643,95.4834,264.6601,0,U,54669,999,17026,-.11156E-3,-.33E-6,0
ONEWEB-0606,2022-166AE,2026-06-07T16:44:47.569056,13.21826265,.0001928,87.9257,245.8874,104.0546,256.0802,0,U,54670,999,17031,-.55147E-4,-.1E-6,0
