ONEWEB-0536             
1 54148U 22138AM  26158.74995416  .00000057  00000+0  10762-3 0  9995
2 54148  87.9176 276.3396 0002748 115.7669 244.3748 13.20771064178058
ONEWEB-0527             
1 54642U 22166A   26158.83337963 -.00041461  00000+0 -10328+0 0  9992
2 54642  87.9244 245.8581 0002097 101.2731 113.4646 13.20241148  5234
ONEWEB-0528             
1 54643U 22166B   26158.71499928  .00000005  00000+0 -18221-4 0  9993
2 54643  87.9256 245.8841 0001792 101.3042 258.8293 13.21668392170290
ONEWEB-0539             
1 54644U 22166C   26158.75328494 -.00000033  00000+0 -11144-3 0  9995
2 54644  87.9264 245.8476 0002077  93.2806 266.8565 13.21826251170299
ONEWEB-0540             
1 54645U 22166D   26158.76014707  .00000024  00000+0  27449-4 0  9990
2 54645  87.9258 245.8772 0002069  96.2576 263.8794 13.21826829170281
ONEWEB-0542             
1 54646U 22166E   26158.61197931  .00000037  00000+0  59194-4 0  9992
2 54646  87.9265 245.8742 0002111  91.3093 268.8283 13.21827660170276
ONEWEB-0545             
1 54647U 22166F   26158.72804519  .00000124  00000+0  26980-3 0  9995
2 54647  87.9255 245.8638 0002298  87.8267 272.3130 13.21827862170252
ONEWEB-0580             
1 54648U 22166G   26158.70281024 -.00000068  00000+0 -19620-3 0  9996
2 54648  87.9258 245.8684 0002352  92.7726 267.3677 13.21827067170294
ONEWEB-0582             
1 54649U 22166H   26158.74487339  .00000033  00000+0  48609-4 0  9998
2 54649  87.9257 245.8527 0002270  90.0457 270.0937 13.21826615170277
ONEWEB-0583             
1 54650U 22166J   26158.75664329  .00000040  00000+0  65605-4 0  9990
2 54650  87.9255 245.8737 0002012  96.0470 264.0893 13.21827847170288
ONEWEB-0584             
1 54651U 22166K   26158.70112176  .00000000  00000+0 -32124-4 0  9991
2 54651  87.9256 245.8704 0002134  97.8195 262.3181 13.21825120170263
ONEWEB-0585             
1 54652U 22166L   26158.72468984 -.00000101  00000+0 -27660-3 0  9996
2 54652  87.9258 245.8522 0001974 104.0071 256.1282 13.21826518170275
ONEWEB-0586             
1 54653U 22166M   26158.73811719 -.00000150  00000+0 -39564-3 0  9996
2 54653  87.9257 245.8755 0002059  94.7657 265.3712 13.21825536170272
ONEWEB-0587             
1 54654U 22166N   26158.74821110  .00000054  00000+0  99614-4 0  9998
2 54654  87.9268 245.8460 0001834 109.1555 250.9778 13.21828177170430
ONEWEB-0589             
1 54655U 22166P   26158.73475528 -.00000022  00000+0 -84539-4 0  9993
2 54655  87.9254 245.8622 0002669  84.9105 275.2333 13.21823922170298
ONEWEB-0590             
1 54656U 22166Q   26158.75987402 -.00000054  00000+0 -16112-3 0  9991
2 54656  87.9265 245.8463 0002452 105.2174 254.9231 13.21826275170281
ONEWEB-0591             
1 54657U 22166R   26158.69609468 -.00000010  00000+0 -56343-4 0  9991
2 54657  87.9255 245.8745 0002111  99.8277 260.3096 13.21825741170308
ONEWEB-0592             
1 54658U 22166S   26158.69945264 -.00000053  00000+0 -16035-3 0  9999
2 54658  87.9266 245.8510 0002053  99.3677 260.7690 13.21826917170181
ONEWEB-0593             
1 54659U 22166T   26158.72130546  .00000024  00000+0  26330-4 0  9999
2 54659  87.9259 245.8596 0002034  94.7089 265.4277 13.21827193170295
ONEWEB-0594             
1 54660U 22166U   26158.74148285  .00000026  00000+0  31358-4 0  9990
2 54660  87.9256 245.8718 0002001 101.4561 258.6798 13.21824101170316
ONEWEB-0595             
1 54661U 22166V   26158.71795188 -.00000023  00000+0 -88362-4 0  9994
2 54661  87.9266 245.8563 0002028 105.8561 254.2796 13.21826220170283
ONEWEB-0596             
1 54662U 22166W   26158.69272663  .00000001  00000+0 -29168-4 0  9994
2 54662  87.9257 245.8732 0002003 102.1351 258.0007 13.21826239170289
ONEWEB-0597             
1 54663U 22166X   26158.74991860 -.00000039  00000+0 -12586-3 0  9995
2 54663  87.9254 245.8652 0002045  96.0702 264.0665 13.21826236170290
ONEWEB-0600             
1 54664U 22166Y   26158.73138948  .00000033  00000+0  48394-4 0  9994
2 54664  87.9255 245.8603 0001864  95.4651 264.6695 13.21828010170260
ONEWEB-0601             
1 54665U 22166Z   26158.72299191  .00000073  00000+0  14598-3 0  9994
2 54665  87.9251 245.8778 0002130  93.4299 266.7079 13.21825392170453
ONEWEB-0602             
1 54666U 22166AA  26158.76420866 -.00000036  00000+0 -11895-3 0  9992
2 54666  87.9255 245.8759 0001850  92.9437 267.1908 13.21825807170304
ONEWEB-0603             
1 54667U 22166AB  26158.69441035 -.00000042  00000+0 -13349-3 0  9999
2 54667  87.9265 245.8457 0002015  96.1212 264.0152 13.21825848170225
ONEWEB-0604             
1 54668U 22166AC  26158.68262837 -.00000025  00000+0 -92677-4 0  9993
2 54668  87.9266 245.8638 0001958 101.2693 258.8661 13.21827381170189
ONEWEB-0605             
1 54669U 22166AD  26158.75160603 -.00000033  00000+0 -11156-3 0  9991
2 54669  87.9257 245.8643 0002635  95.4834 264.6601 13.21824765170261
ONEWEB-0606             
1 54670U 22166AE  26158.69777279 -.00000010  00000+0 -55147-4 0  9993
2 54670  87.9257 245.8874 0001928 104.0546 256.0802 13.21826265170311
